NORAD_CAT_ID,OBJECT_NAME,OBJECT_TYPE,EPOCH,MEAN_MOTION,ECCENTRICITY,INCLINATION,RA_OF_ASC_NODE,ARG_OF_PERICENTER,MEAN_ANOMALY,BSTAR,MEAN_MOTION_DOT,MEAN_MOTION_DDOT,TLE_LINE0,TLE_LINE1,TLE_LINE2,SEMIMAJOR_AXIS,PERIOD,APOGEE,PERIGEE,DECAYED
50832.0,STARLINK-3328,PAYLOAD,2022-12-19 21:14:51,15.08839527,0.000224,53.2186,57.5269,38.7016,321.4136,0.0001867,2.684e-05,0.0,0 STARLINK-3328,1 50832U 22001AF  22353.88532241  .00002684  00000-0  18670-3 0  9996,2 50832  53.2186  57.5269 0002240  38.7016 321.4136 15.08839527 54010,6917.882,95.438,541.2959999999998,538.197,0.0
50832.0,STARLINK-3328,PAYLOAD,2022-12-20 13:08:42,15.08853848,0.0002216,53.2177,54.5521,35.62699999999999,324.487,8.712200000000001e-05,1.099e-05,0.0,0 STARLINK-3328,1 50832U 22001AF  22354.54771267  .00001099  00000-0  87122-4 0  9991,2 50832  53.2177  54.5521 0002216  35.6270 324.4870 15.08853848 54110,6917.8380000000025,95.437,541.236,538.17,0.0
50832.0,STARLINK-3328,PAYLOAD,2022-12-21 12:59:31,15.08827351,0.0002174,53.2185,50.0916,40.304,319.8113,-0.0001607,-2.844e-05,0.0,0 STARLINK-3328,1 50832U 22001AF  22355.54133715 -.00002844  00000-0 -16070-3 0  9996,2 50832  53.2185  50.0916 0002174  40.3040 319.8113 15.08827351 54263,6917.919,95.438,541.288,538.28,0.0
50832.0,STARLINK-3328,PAYLOAD,2022-12-22 03:17:58,15.08840071,0.0002293,53.2184,47.4151,30.2956,329.8168,-7.2439e-05,-1.441e-05,0.0,0 STARLINK-3328,1 50832U 22001AF  22356.13748689 -.00001441  00000-0 -72439-4 0  9998,2 50832  53.2184  47.4151 0002293  30.2956 329.8168 15.08840071 54354,6917.88,95.438,541.331,538.159,0.0
50832.0,STARLINK-3328,PAYLOAD,2022-12-22 12:50:16,15.08848956,0.0002208,53.2186,45.6316,34.8041,325.3096,-5.7137e-06,-3.79e-06,0.0,0 STARLINK-3328,1 50832U 22001AF  22356.53491827 -.00000379  00000-0 -57137-5 0  9999,2 50832  53.2186  45.6316 0002208  34.8041 325.3096 15.08848956 54418,6917.853,95.437,541.245,538.191,0.0
50832.0,STARLINK-3328,PAYLOAD,2022-12-23 03:08:46,15.08827733,0.0002314,53.2186,42.9555,31.8795,328.2337,0.00011209,1.496e-05,0.0,0 STARLINK-3328,1 50832U 22001AF  22357.13108808  .00001496  00000-0  11209-3 0  9997,2 50832  53.2186  42.9555 0002314  31.8795 328.2337 15.08827733 54504,6917.918000000002,95.438,541.384,538.182,0.0
50832.0,STARLINK-3328,PAYLOAD,2022-12-23 09:30:18,15.08826446,0.0002308,53.2185,41.7656,32.3614,327.7519999999999,9.1902e-05,1.174e-05,0.0,0 STARLINK-3328,1 50832U 22001AF  22357.39605142  .00001174  00000-0  91902-4 0  9990,2 50832  53.2185  41.7656 0002308  32.3614 327.7520 15.08826446 53294,6917.922,95.438,541.383,538.19,0.0
50832.0,STARLINK-3328,PAYLOAD,2022-12-23 22:13:23,15.08837634,0.0002057,53.219,39.3847,34.7968,325.3158,0.00014617,2.039e-05,0.0,0 STARLINK-3328,1 50832U 22001AF  22357.92596409  .00002039  00000-0  14617-3 0  9992,2 50832  53.2190  39.3847 0002057  34.7968 325.3158 15.08837634 54624,6917.888000000001,95.438,541.1759999999998,538.33,0.0
50832.0,STARLINK-3328,PAYLOAD,2022-12-24 02:59:32,15.08849455,0.0002273,53.2186,38.4938,33.8154,326.2982,9.1576e-05,1.17e-05,0.0,0 STARLINK-3328,1 50832U 22001AF  22358.12467870  .00001170  00000-0  91576-4 0  9999,2 50832  53.2186  38.4938 0002273  33.8154 326.2982 15.08849455 54659,6917.851,95.437,541.289,538.144,0.0
50832.0,STARLINK-3328,PAYLOAD,2022-12-24 09:21:05,15.0884298,0.0002121,53.2185,37.3029,35.2373,324.8759,8.2279e-05,1.022e-05,0.0,0 STARLINK-3328,1 50832U 22001AF  22358.38964192  .00001022  00000-0  82279-4 0  9992,2 50832  53.2185  37.3029 0002121  35.2373 324.8759 15.08842980 53446,6917.871,95.437,541.2040000000002,538.269,0.0
50832.0,STARLINK-3328,PAYLOAD,2022-12-24 12:31:51,15.08846477,0.0002309,53.2196,36.7095,23.9626,336.1473,4.9717e-06,-2.09e-06,0.0,0 STARLINK-3328,1 50832U 22001AF  22358.52212073 -.00000209  00000-0  49717-5 0  9990,2 50832  53.2196  36.7095 0002309  23.9626 336.1473 15.08846477 53463,6917.861,95.437,541.323,538.128,0.0
50832.0,STARLINK-3328,PAYLOAD,2022-12-24 23:39:33,15.0883584,0.000225,53.2192,34.6272,31.0568,329.0556,2.0907e-05,4.4e-07,0.0,0 STARLINK-3328,1 50832U 22001AF  22358.98580799  .00000044  00000-0  20907-4 0  9998,2 50832  53.2192  34.6272 0002250  31.0568 329.0556 15.08835840 54784,6917.893,95.438,541.315,538.202,0.0
50832.0,STARLINK-3328,PAYLOAD,2022-12-25 09:11:52,15.0883636,0.0002284,53.2193,32.8435,31.0299,329.0828,2.7638e-05,1.52e-06,0.0,0 STARLINK-3328,1 50832U 22001AF  22359.38324811  .00000152  00000-0  27638-4 0  9992,2 50832  53.2193  32.8435 0002284  31.0299 329.0828 15.08836360 53592,6917.892,95.438,541.337,538.1759999999998,0.0
50832.0,STARLINK-3328,PAYLOAD,2022-12-26 02:41:07,15.08838357,0.0002387,53.2193,29.5742,30.0544,330.0585,-8.1462e-05,-1.585e-05,0.0,0 STARLINK-3328,1 50832U 22001AF  22360.11189159 -.00001585  00000-0 -81462-4 0  9997,2 50832  53.2193  29.5742 0002387  30.0544 330.0585 15.08838357 54953,6917.885,95.438,541.4019999999998,538.099,0.0
50832.0,STARLINK-3328,PAYLOAD,2022-12-26 12:13:26,15.08831821,0.0002464,53.2188,27.7892,28.6519,331.4608,2.9039e-05,1.74e-06,0.0,0 STARLINK-3328,1 50832U 22001AF  22360.50933335  .00000174  00000-0  29039-4 0  9996,2 50832  53.2188  27.7892 0002464  28.6519 331.4608 15.08831821 53762,6917.905,95.438,541.475,538.066,0.0
50832.0,STARLINK-3328,PAYLOAD,2022-12-26 18:34:58,15.08840728,0.000244,53.2191,26.6004,31.1917,328.922,4.3936e-05,4.11e-06,0.0,0 STARLINK-3328,1 50832U 22001AF  22360.77428728  .00000411  00000-0  43936-4 0  9996,2 50832  53.2191  26.6004 0002440  31.1917 328.9220 15.08840728 53806,6917.878000000002,95.438,541.431,538.055,0.0
50832.0,STARLINK-3328,PAYLOAD,2022-12-27 08:53:27,15.08817096,0.000246,53.2182,23.924,36.1146,324.0012,0.00034828,5.256e-05,0.0,0 STARLINK-3328,1 50832U 22001AF  22361.37045451  .00005256  00000-0  34828-3 0  9992,2 50832  53.2182  23.9240 0002460  36.1146 324.0012 15.08817096 55146,6917.95,95.439,541.5169999999998,538.114,0.0
50832.0,STARLINK-3328,PAYLOAD,2022-12-27 23:11:54,15.0884809,0.0002374,53.2183,21.2475,29.5529,330.5597,0.00014098,1.957e-05,0.0,0 STARLINK-3328,1 50832U 22001AF  22361.96659863  .00001957  00000-0  14098-3 0  9996,2 50832  53.2183  21.2475 0002374  29.5529 330.5597 15.08848090 55231,6917.856,95.437,541.363,538.078,0.0
50832.0,STARLINK-3328,PAYLOAD,2022-12-28 00:47:17,15.08848912,0.0002374,53.2184,20.9501,29.5326,330.58,0.00014497,2.02e-05,0.0,0 STARLINK-3328,1 50832U 22001AF  22362.03283780  .00002020  00000-0  14497-3 0  9991,2 50832  53.2184  20.9501 0002374  29.5326 330.5800 15.08848912 53994,6917.853,95.437,541.36,538.076,0.0
50832.0,STARLINK-3328,PAYLOAD,2022-12-29 00:38:05,15.08833728,0.0002697,53.2182,16.4882,32.55,327.5658,-0.00010195,-1.911e-05,0.0,0 STARLINK-3328,1 50832U 22001AF  22363.02645741 -.00001911  00000-0 -10195-3 0  9991,2 50832  53.2182  16.4882 0002697  32.5500 327.5658 15.08833728 55392,6917.9,95.438,541.63,537.899,0.0
50832.0,STARLINK-3328,PAYLOAD,2022-12-30 08:25:47,15.08851508,0.000264,53.2183,10.5429,32.5167,327.5988,-1.4795e-05,-5.24e-06,0.0,0 STARLINK-3328,1 50832U 22001AF  22364.35124815 -.00000524  00000-0 -14795-4 0  9992,2 50832  53.2183  10.5429 0002640  32.5167 327.5988 15.08851508 55596,6917.845,95.437,541.5369999999998,537.884,0.0
50832.0,STARLINK-3328,PAYLOAD,2022-12-31 09:51:57,15.08847783,0.0002501999999999,53.2187,5.7851,33.1658,326.949,0.00023895,3.517e-05,0.0,0 STARLINK-3328,1 50832U 22001AF  22365.41107882  .00003517  00000-0  23895-3 0  9998,2 50832  53.2187   5.7851 0002502  33.1658 326.9490 15.08847783 55753,6917.857,95.437,541.452,537.991,0.0
50832.0,STARLINK-3328,PAYLOAD,2023-01-01 09:42:45,15.08839356,0.0001949,53.2197,1.3226,31.1362,328.9745,-0.00010127,-1.9e-05,0.0,0 STARLINK-3328,1 50832U 22001AF  23001.40469292 -.00001900  00000-0 -10127-3 0  9991,2 50832  53.2197   1.3226 0001949  31.1362 328.9745 15.08839356 55905,6917.882,95.438,541.096,538.399,0.0
50832.0,STARLINK-3328,PAYLOAD,2023-01-02 00:01:14,15.08829126,0.0002145,53.2187,358.6473,34.0757,326.0373,-0.00021251,-3.668e-05,0.0,0 STARLINK-3328,1 50832U 22001AF  23002.00086518 -.00003668  00000-0 -21251-3 0  9997,2 50832  53.2187 358.6473 0002145  34.0757 326.0373 15.08829126 55994,6917.9140000000025,95.438,541.263,538.295,0.0
50832.0,STARLINK-3328,PAYLOAD,2023-01-02 09:33:33,15.08836265,0.0002495,53.2199,356.8632,36.8761,323.2402,-0.00011801,-2.166e-05,0.0,0 STARLINK-3328,1 50832U 22001AF  23002.39830060 -.00002166  00000-0 -11801-3 0  9990,2 50832  53.2199 356.8632 0002495  36.8761 323.2402 15.08836265 56059,6917.892,95.438,541.4830000000002,538.031,0.0
50832.0,STARLINK-3328,PAYLOAD,2023-01-02 15:55:05,15.08841479,0.0002309,53.2186,355.6745,35.2442,324.8702,-5.2002e-05,-1.116e-05,0.0,0 STARLINK-3328,1 50832U 22001AF  23002.66325471 -.00001116  00000-0 -52002-4 0  9998,2 50832  53.2186 355.6745 0002309  35.2442 324.8702 15.08841479 56097,6917.876,95.437,541.3380000000002,538.144,0.0
50832.0,STARLINK-3328,PAYLOAD,2023-01-03 06:13:34,15.08826573,0.0002381999999999,53.2187,352.9981,33.6695,326.4448,0.0001406999999999,1.951e-05,0.0,0 STARLINK-3328,1 50832U 22001AF  23003.25942226  .00001951  00000-0  14070-3 0  9994,2 50832  53.2187 352.9981 0002382  33.6695 326.4448 15.08826573 56186,6917.920999999999,95.438,541.434,538.139,0.0
50832.0,STARLINK-3328,PAYLOAD,2023-01-03 09:24:20,15.08826742,0.0002407,53.2186,352.4036,32.9908,327.1234,0.00013761,1.902e-05,0.0,0 STARLINK-3328,1 50832U 22001AF  23003.39190395  .00001902  00000-0  13761-3 0  9993,2 50832  53.2186 352.4036 0002407  32.9908 327.1234 15.08826742 54950,6917.920999999999,95.438,541.451,538.121,0.0
50832.0,STARLINK-3328,PAYLOAD,2023-01-04 06:04:21,15.0883687,0.0002435,53.2193,348.5385,31.5759,328.5379,0.00017011,2.42e-05,0.0,0 STARLINK-3328,1 50832U 22001AF  23004.25302260  .00002420  00000-0  17011-3 0  9993,2 50832  53.2193 348.5385 0002435  31.5759 328.5379 15.08836870 56333,6917.89,95.438,541.439,538.07,0.0
